IRIDIUM 144             
1 43249U 18030A   25062.57217075  .00000083  00000+0  22553-4 0  9994
2 43249  86.3975 127.1780 0002230  91.0084 269.1367 14.34216411362683
IRIDIUM 149             
1 43250U 18030B   25062.57851203  .00000040  00000+0  70805-5 0  9990
2 43250  86.3974 127.1478 0002079  91.8965 268.2469 14.34216358362701
IRIDIUM 157             
1 43251U 18030C   25062.59753978  .00000396  00000+0  13434-3 0  9990
2 43251  86.3976 127.1825 0002168 103.2921 256.8516 14.34213122362688
IRIDIUM 140             
1 43252U 18030D   25062.54679983  .00000127  00000+0  38291-4 0  9990
2 43252  86.3974 127.2175 0002267  92.0411 268.1045 14.34215051362737
IRIDIUM 145             
1 43253U 18030E   25062.60387553  .00000922  00000+0  32224-3 0  9999
2 43253  86.3976 127.1669 0002036  83.4700 276.6728 14.34213723362675
IRIDIUM 146             
1 43254U 18030F   25062.58485482 -.00000035  00000+0 -19399-4 0  9993
2 43254  86.3974 127.1884 0002013  85.0277 275.1148 14.34216847362686
IRIDIUM 148             
1 43255U 18030G   25062.55314165 -.00000312  00000+0 -11849-3 0  9999
2 43255  86.3975 127.2374 0001923  93.8389 266.3026 14.34215869362717
IRIDIUM 142             
1 43256U 18030H   25062.59119857  .00000474  00000+0  16233-3 0  9994
2 43256  86.3973 127.1279 0001932  83.4675 276.6741 14.34216594362682
